PROBA-1                 
1 26958U 01049B   26178.95593221  .00002670  00000+0  17397-3 0  9998
2 26958  97.9602 187.8640 0056595  86.6546 274.1153 15.07542728345246
CUTE-1 (CO-55)          
1 27844U 03031E   26178.85535065  .00000274  00000+0  13740-3 0  9993
2 27844  98.6736 187.2801 0010185 148.1888 211.9908 14.24341870193193
CUBESAT XI-IV (CO-57)   
1 27848U 03031J   26178.56803147  .00000234  00000+0  12175-3 0  9991
2 27848  98.6767 186.7007 0009661 166.6702 193.4734 14.23626048192855
APRIZESAT 4             
1 35684U 09041D   26178.77634323  .00000638  00000+0  82788-4 0  9992
2 35684  98.1411 254.3077 0041936 287.8052  71.8588 14.83892141912937
APRIZESAT 3             
1 35686U 09041F   26178.86569564  .00000868  00000+0  79815-4 0  9990
2 35686  98.2076 332.6019 0062403  32.8473 327.6601 14.96272026917975
PROBA-2                 
1 36037U 09059B   26178.76312471  .00000189  00000+0  54534-4 0  9999
2 36037  98.2451   1.9693 0012031 245.8487 114.1453 14.54866678883062
APRIZESAT 5             
1 37792U 11044E   26178.74903004  .00001002  00000+0  13373-3 0  9991
2 37792  98.2452 112.0888 0051486 330.1722  29.6557 14.81097082800350
APRIZESAT 6             
1 37793U 11044F   26178.70978993  .00000771  00000+0  11577-3 0  9993
2 37793  98.2358  89.4239 0044251  53.3903 336.6258 14.76931203798700
PROBA-V                 
1 39159U 13021A   26178.87271473  .00000096  00000+0  59927-4 0  9997
2 39159  98.3590 156.9521 0005418  99.0187 261.1606 14.23599464682638
APRIZESAT 7             
1 39416U 13066A   26178.82047357  .00001217  00000+0  12555-3 0  9990
2 39416  97.7712 131.8876 0035914 173.6447 186.5235 14.91584687682814
APRIZESAT 8             
1 39425U 13066K   26178.83593921  .00000838  00000+0  96713-4 0  9991
2 39425  97.8223 126.1556 0044401 250.3033 109.3390 14.87670505681251
BUGSAT-1 (TITA)         
1 40014U 14033E   26178.92959088  .00005659  00000+0  29800-3 0  9990
2 40014  98.0435 272.1069 0028754 142.4161 217.9087 15.15702252657464
SAUDISAT 4              
1 40016U 14033G   26178.87190050  .00000598  00000+0  85379-4 0  9993
2 40016  97.7594 324.6375 0045660  40.1397 320.3173 14.79557530647652
APRIZESAT 9             
1 40018U 14033J   26178.86383403  .00000764  00000+0  11934-3 0  9990
2 40018  97.9072 311.8021 0066537 164.8287 195.4938 14.74229426645137
APRIZESAT 10            
1 40019U 14033K   26178.87497388  .00000515  00000+0  88733-4 0  9996
2 40019  97.9662 305.5967 0077600 239.1230 120.2328 14.70892447643827
TECHDEMOSAT-1 (TDS-1)   
1 40076U 14037H   26178.86978414  .00008359  00000+0  47166-3 0  9994
2 40076  98.3809 172.1421 0005227 218.8750 141.2104 15.13445265649841
TECHNOSAT               
1 42829U 17042E   26178.88725664  .00002757  00000+0  19762-3 0  9997
2 42829  97.4291 336.1391 0019185  60.9924 299.3223 15.05023001488310
FLYING LAPTOP           
1 42831U 17042G   26178.91718167  .00004788  00000+0  37589-3 0  9997
2 42831  97.4727 334.0401 0019976  87.2955 273.0556 15.01214941488061
HAWK-A                  
1 43765U 18099H   26178.71748045  .00006078  00000+0  24449-3 0  9998
2 43765  97.3913 230.8162 0033240 246.8838 112.8896 15.24761192414701
HAWK-B                  
1 43794U 18099AN  26178.88299805  .00006021  00000+0  25641-3 0  9996
2 43794  97.3961 230.3722 0030255 265.2299  94.5482 15.22936087414669
HAWK-C                  
1 43799U 18099AT  26178.93203868  .00007306  00000+0  26233-3 0  9996
2 43799  97.3888 231.9932 0038878 246.0530 113.6636 15.28248532415556
SALSAT                  
1 46495U 20068K   26178.74142451  .00007317  00000+0  25510-3 0  9999
2 46495  97.8846 182.4496 0007842 262.7765  97.2583 15.29943751316978
HAWK-2C                 
1 47502U 21006CT  26178.84521474  .00006329  00000+0  18983-3 0  9997
2 47502  97.2276 222.9426 0007807 151.0101 209.1578 15.34788832301130
HAWK-2A                 
1 47505U 21006CW  26178.84760445  .00006254  00000+0  18754-3 0  9996
2 47505  97.2318 223.6289 0007261 153.6835 206.4779 15.34803044301137
HAWK-2B                 
1 47508U 21006CZ  26178.84247851  .00007226  00000+0  21554-3 0  9992
2 47508  97.2186 221.9385 0007851 152.5691 207.5969 15.34908208301135
HAWK-3B                 
1 48931U 21059BE  26178.52227096  .00043306  00000+0  35439-3 0  9991
2 48931  97.6648  16.2140 0003127 277.3164  82.7742 15.70424528279471
HAWK-3C                 
1 48948U 21059BX  26178.84053799  .00041144  00000+0  33647-3 0  9998
2 48948  97.6765  22.2673 0003356 275.7616  84.3263 15.70450163279521
HAWK-3A                 
1 48957U 21059CG  26178.52180886  .00042548  00000+0  34835-3 0  9990
2 48957  97.6710  19.1141 0003281 280.0329  80.0562 15.70416396279472
HAWK-5C                 
1 52754U 22057Y   26178.87898744  .00017961  00000+0  30249-3 0  9992
2 52754  97.6604 339.2381 0004204  48.8944 311.2670 15.51760773228007
HAWK-5B                 
1 52756U 22057AA  26178.87882084  .00017773  00000+0  29928-3 0  9997
2 52756  97.6613 337.5881 0004826  40.6505 319.5106 15.51764093228002
