OBJECT_NAME,OBJECT_ID,EPOCH,MEAN_MOTION,ECCENTRICITY,INCLINATION,RA_OF_ASC_NODE,ARG_OF_PERICENTER,MEAN_ANOMALY,EPHEMERIS_TYPE,CLASSIFICATION_TYPE,NORAD_CAT_ID,ELEMENT_SET_NO,REV_AT_EPOCH,BSTAR,MEAN_MOTION_DOT,MEAN_MOTION_DDOT
PROBA-1,2001-049B,2026-06-27T22:56:32.542944,15.07542728,.00565957,97.9602,187.8640,86.6546,274.1153,0,U,26958,999,34524,.17397163E-3,.267E-4,0
CUTE-1 (CO-55),2003-031E,2026-06-27T20:31:42.296160,14.24341870,.00101852,98.6736,187.2801,148.1888,211.9908,0,U,27844,999,19319,.13739642E-3,.274E-5,0
CUBESAT XI-IV (CO-57),2003-031J,2026-06-27T13:37:57.919008,14.23626048,.00096614,98.6767,186.7007,166.6702,193.4734,0,U,27848,999,19285,.12175343E-3,.234E-5,0
APRIZESAT 4,2009-041D,2026-06-27T18:37:56.055072,14.83892141,.00419369,98.1411,254.3077,287.8052,71.8588,0,U,35684,999,91293,.82788371E-4,.638E-5,0
APRIZESAT 3,2009-041F,2026-06-27T20:46:36.103296,14.96272026,.00624037,98.2076,332.6019,32.8473,327.6601,0,U,35686,999,91797,.79814838E-4,.868E-5,0
PROBA-2,2009-059B,2026-06-27T18:18:53.974944,14.54866678,.00120312,98.2451,1.9693,245.8487,114.1453,0,U,36037,999,88306,.54534155E-4,.189E-5,0
APRIZESAT 5,2011-044E,2026-06-27T17:58:36.195456,14.81097082,.00514863,98.2452,112.0888,330.1722,29.6557,0,U,37792,999,80035,.1337282E-3,.1002E-4,0
APRIZESAT 6,2011-044F,2026-06-27T17:02:05.849952,14.76931203,.00442516,98.2358,89.4239,53.3903,336.6258,0,U,37793,999,79870,.11576651E-3,.771E-5,0
PROBA-V,2013-021A,2026-06-27T20:56:42.552672,14.23599464,.0005418,98.3590,156.9521,99.0187,261.1606,0,U,39159,999,68263,.59926647E-4,.96E-6,0
APRIZESAT 7,2013-066A,2026-06-27T19:41:28.916448,14.91584687,.00359147,97.7712,131.8876,173.6447,186.5235,0,U,39416,999,68281,.1255549E-3,.1217E-4,0
APRIZESAT 8,2013-066K,2026-06-27T20:03:45.147744,14.87670505,.00444011,97.8223,126.1556,250.3033,109.3390,0,U,39425,999,68125,.96712822E-4,.838E-5,0
BUGSAT-1 (TITA),2014-033E,2026-06-27T22:18:36.652032,15.15702252,.00287549,98.0435,272.1069,142.4161,217.9087,0,U,40014,999,65746,.29800416E-3,.5659E-4,0
SAUDISAT 4,2014-033G,2026-06-27T20:55:32.203200,14.79557530,.00456601,97.7594,324.6375,40.1397,320.3173,0,U,40016,999,64765,.85378562E-4,.598E-5,0
APRIZESAT 9,2014-033J,2026-06-27T20:43:55.260192,14.74229426,.0066537,97.9072,311.8021,164.8287,195.4938,0,U,40018,999,64513,.11934179E-3,.764E-5,0
APRIZESAT 10,2014-033K,2026-06-27T20:59:57.743232,14.70892447,.00776006,97.9662,305.5967,239.1230,120.2328,0,U,40019,999,64382,.88732723E-4,.515E-5,0
TECHDEMOSAT-1 (TDS-1),2014-037H,2026-06-27T20:52:29.349696,15.13445265,.00052279,98.3809,172.1421,218.8750,141.2104,0,U,40076,999,64984,.4716597E-3,.8359E-4,0
TECHNOSAT,2017-042E,2026-06-27T21:17:38.973696,15.05023001,.00191857,97.4291,336.1391,60.9924,299.3223,0,U,42829,999,48831,.19762032E-3,.2757E-4,0
FLYING LAPTOP,2017-042G,2026-06-27T22:00:44.496288,15.01214941,.00199761,97.4727,334.0401,87.2955,273.0556,0,U,42831,999,48806,.3758917E-3,.4788E-4,0
HAWK-A,2018-099H,2026-06-27T17:13:10.310880,15.24761192,.00332403,97.3913,230.8162,246.8838,112.8896,0,U,43765,999,41470,.24448903E-3,.6078E-4,0
HAWK-B,2018-099AN,2026-06-27T21:11:31.031520,15.22936087,.00302558,97.3961,230.3722,265.2299,94.5482,0,U,43794,999,41466,.25640539E-3,.6021E-4,0
HAWK-C,2018-099AT,2026-06-27T22:22:08.141952,15.28248532,.00388783,97.3888,231.9932,246.0530,113.6636,0,U,43799,999,41555,.26232962E-3,.7306E-4,0
SALSAT,2020-068K,2026-06-27T17:47:39.077664,15.29943751,.00078426,97.8846,182.4496,262.7765,97.2583,0,U,46495,999,31697,.25510061E-3,.7317E-4,0
HAWK-2C,2021-006CT,2026-06-27T20:17:06.553536,15.34788832,.00078074,97.2276,222.9426,151.0101,209.1578,0,U,47502,999,30113,.18982945E-3,.6329E-4,0
HAWK-2A,2021-006CW,2026-06-27T20:20:33.024480,15.34803044,.00072619,97.2318,223.6289,153.6835,206.4779,0,U,47505,999,30113,.18754221E-3,.6254E-4,0
HAWK-2B,2021-006CZ,2026-06-27T20:13:10.143264,15.34908208,.0007851,97.2186,221.9385,152.5691,207.5969,0,U,47508,999,30113,.21554154E-3,.7226E-4,0
HAWK-3B,2021-059BE,2026-06-27T12:32:04.210944,15.70424528,.00031271,97.6648,16.2140,277.3164,82.7742,0,U,48931,999,27947,.35439254E-3,.43306E-3,0
HAWK-3C,2021-059BX,2026-06-27T20:10:22.482336,15.70450163,.00033567,97.6765,22.2673,275.7616,84.3263,0,U,48948,999,27952,.33647185E-3,.41144E-3,0
HAWK-3A,2021-059CG,2026-06-27T12:31:24.285504,15.70416396,.00032813,97.6710,19.1141,280.0329,80.0562,0,U,48957,999,27947,.34834726E-3,.42548E-3,0
HAWK-5C,2022-057Y,2026-06-27T21:05:44.514816,15.51760773,.00042043,97.6604,339.2381,48.8944,311.2670,0,U,52754,999,22800,.3024914E-3,.17961E-3,0
HAWK-5B,2022-057AA,2026-06-27T21:05:30.120576,15.51764093,.00048264,97.6613,337.5881,40.6505,319.5106,0,U,52756,999,22800,.29928323E-3,.17773E-3,0
